CCSDS_OMM_VERS = 2.0
CREATION_DATE  = 
ORIGINATOR     = 

OBJECT_NAME    = ARIANE 40 R/B
OBJECT_ID      = 1990-005H
CENTER_NAME    = EARTH
REF_FRAME      = TEME
TIME_SYSTEM    = UTC
MEAN_ELEMENT_THEORY = SGP/SGP4

EPOCH          = 2025-11-29T17:50:53.811168
MEAN_MOTION    = 14.39782682
ECCENTRICITY   = .001091
INCLINATION    = 98.3262
RA_OF_ASC_NODE = 32.2879
ARG_OF_PERICENTER = 141.2742
MEAN_ANOMALY   = 218.9231

EPHEMERIS_TYPE = 0
CLASSIFICATION_TYPE = U
NORAD_CAT_ID   = 20443
ELEMENT_SET_NO = 999
REV_AT_EPOCH   = 87842
BSTAR          = .11695E-3
MEAN_MOTION_DOT = .325E-5
MEAN_MOTION_DDOT = 0

CCSDS_OMM_VERS = 2.0
CREATION_DATE  = 
ORIGINATOR     = 

OBJECT_NAME    = DELTA 2 R/B(1)
OBJECT_ID      = 1990-008B
CENTER_NAME    = EARTH
REF_FRAME      = TEME
TIME_SYSTEM    = UTC
MEAN_ELEMENT_THEORY = SGP/SGP4

EPOCH          = 2025-11-29T18:12:17.195040
MEAN_MOTION    = 15.43869126
ECCENTRICITY   = .0113108
INCLINATION    = 35.6053
RA_OF_ASC_NODE = 104.2714
ARG_OF_PERICENTER = 59.6828
MEAN_ANOMALY   = 301.5038

EPHEMERIS_TYPE = 0
CLASSIFICATION_TYPE = U
NORAD_CAT_ID   = 20453
ELEMENT_SET_NO = 999
REV_AT_EPOCH   = 91062
BSTAR          = .64356E-3
MEAN_MOTION_DOT = .38459E-3
MEAN_MOTION_DDOT = 0

CCSDS_OMM_VERS = 2.0
CREATION_DATE  = 
ORIGINATOR     = 

OBJECT_NAME    = COSMOS 2058
OBJECT_ID      = 1990-010A
CENTER_NAME    = EARTH
REF_FRAME      = TEME
TIME_SYSTEM    = UTC
MEAN_ELEMENT_THEORY = SGP/SGP4

EPOCH          = 2025-11-29T18:32:53.287008
MEAN_MOTION    = 15.10288245
ECCENTRICITY   = .00089
INCLINATION    = 82.4630
RA_OF_ASC_NODE = 145.7869
ARG_OF_PERICENTER = 327.0631
MEAN_ANOMALY   = 33.0043

EPHEMERIS_TYPE = 0
CLASSIFICATION_TYPE = U
NORAD_CAT_ID   = 20465
ELEMENT_SET_NO = 999
REV_AT_EPOCH   = 92715
BSTAR          = .25295E-3
MEAN_MOTION_DOT = .4172E-4
MEAN_MOTION_DDOT = 0

CCSDS_OMM_VERS = 2.0
CREATION_DATE  = 
ORIGINATOR     = 

OBJECT_NAME    = SL-14 R/B
OBJECT_ID      = 1990-010B
CENTER_NAME    = EARTH
REF_FRAME      = TEME
TIME_SYSTEM    = UTC
MEAN_ELEMENT_THEORY = SGP/SGP4

EPOCH          = 2025-11-29T19:04:25.845312
MEAN_MOTION    = 14.83452135
ECCENTRICITY   = .0018267
INCLINATION    = 82.5027
RA_OF_ASC_NODE = 1.2054
ARG_OF_PERICENTER = 269.0083
MEAN_ANOMALY   = 90.9039

EPHEMERIS_TYPE = 0
CLASSIFICATION_TYPE = U
NORAD_CAT_ID   = 20466
ELEMENT_SET_NO = 999
REV_AT_EPOCH   = 91367
BSTAR          = .52855E-4
MEAN_MOTION_DOT = .459E-5
MEAN_MOTION_DDOT = 0

CCSDS_OMM_VERS = 2.0
CREATION_DATE  = 
ORIGINATOR     = 

OBJECT_NAME    = SL-14 R/B
OBJECT_ID      = 1990-018B
CENTER_NAME    = EARTH
REF_FRAME      = TEME
TIME_SYSTEM    = UTC
MEAN_ELEMENT_THEORY = SGP/SGP4

EPOCH          = 2025-11-29T17:11:50.233632
MEAN_MOTION    = 14.82024883
ECCENTRICITY   = .0017844
INCLINATION    = 82.5200
RA_OF_ASC_NODE = 316.5382
ARG_OF_PERICENTER = 63.6258
MEAN_ANOMALY   = 296.6786

EPHEMERIS_TYPE = 0
CLASSIFICATION_TYPE = U
NORAD_CAT_ID   = 20511
ELEMENT_SET_NO = 999
REV_AT_EPOCH   = 90777
BSTAR          = .62749E-4
MEAN_MOTION_DOT = .523E-5
MEAN_MOTION_DDOT = 0

CCSDS_OMM_VERS = 2.0
CREATION_DATE  = 
ORIGINATOR     = 

OBJECT_NAME    = HST
OBJECT_ID      = 1990-037B
CENTER_NAME    = EARTH
REF_FRAME      = TEME
TIME_SYSTEM    = UTC
MEAN_ELEMENT_THEORY = SGP/SGP4

EPOCH          = 2025-11-29T19:03:18.658080
MEAN_MOTION    = 15.27771999
ECCENTRICITY   = .0002114
INCLINATION    = 28.4702
RA_OF_ASC_NODE = 0.5841
ARG_OF_PERICENTER = 99.4437
MEAN_ANOMALY   = 260.6397

EPHEMERIS_TYPE = 0
CLASSIFICATION_TYPE = U
NORAD_CAT_ID   = 20580
ELEMENT_SET_NO = 999
REV_AT_EPOCH   = 75801
BSTAR          = .26663E-3
MEAN_MOTION_DOT = .7668E-4
MEAN_MOTION_DDOT = 0

CCSDS_OMM_VERS = 2.0
CREATION_DATE  = 
ORIGINATOR     = 

OBJECT_NAME    = SL-16 R/B
OBJECT_ID      = 1990-046B
CENTER_NAME    = EARTH
REF_FRAME      = TEME
TIME_SYSTEM    = UTC
MEAN_ELEMENT_THEORY = SGP/SGP4

EPOCH          = 2025-11-29T19:25:13.728288
MEAN_MOTION    = 14.14995207
ECCENTRICITY   = .001211
INCLINATION    = 70.9969
RA_OF_ASC_NODE = 147.6765
ARG_OF_PERICENTER = 97.5769
MEAN_ANOMALY   = 262.6729

EPHEMERIS_TYPE = 0
CLASSIFICATION_TYPE = U
NORAD_CAT_ID   = 20625
ELEMENT_SET_NO = 999
REV_AT_EPOCH   = 83426
BSTAR          = .2106E-3
MEAN_MOTION_DOT = .36E-5
MEAN_MOTION_DDOT = 0

CCSDS_OMM_VERS = 2.0
CREATION_DATE  = 
ORIGINATOR     = 

OBJECT_NAME    = COSMOS 2084
OBJECT_ID      = 1990-055A
CENTER_NAME    = EARTH
REF_FRAME      = TEME
TIME_SYSTEM    = UTC
MEAN_ELEMENT_THEORY = SGP/SGP4

EPOCH          = 2025-11-29T16:15:49.119840
MEAN_MOTION    = 15.04889196
ECCENTRICITY   = .003377
INCLINATION    = 62.7909
RA_OF_ASC_NODE = 316.4963
ARG_OF_PERICENTER = 173.1480
MEAN_ANOMALY   = 187.0089

EPHEMERIS_TYPE = 0
CLASSIFICATION_TYPE = U
NORAD_CAT_ID   = 20663
ELEMENT_SET_NO = 999
REV_AT_EPOCH   = 92126
BSTAR          = .2119E-3
MEAN_MOTION_DOT = .2844E-4
MEAN_MOTION_DDOT = 0

CCSDS_OMM_VERS = 2.0
CREATION_DATE  = 
ORIGINATOR     = 

OBJECT_NAME    = SL-6 R/B(2)
OBJECT_ID      = 1990-055D
CENTER_NAME    = EARTH
REF_FRAME      = TEME
TIME_SYSTEM    = UTC
MEAN_ELEMENT_THEORY = SGP/SGP4

EPOCH          = 2025-11-29T19:03:15.884640
MEAN_MOTION    = 15.02983254
ECCENTRICITY   = .0011574
INCLINATION    = 62.7830
RA_OF_ASC_NODE = 233.3998
ARG_OF_PERICENTER = 298.6810
MEAN_ANOMALY   = 61.3125

EPHEMERIS_TYPE = 0
CLASSIFICATION_TYPE = U
NORAD_CAT_ID   = 20666
ELEMENT_SET_NO = 999
REV_AT_EPOCH   = 92317
BSTAR          = .17469E-3
MEAN_MOTION_DOT = .2167E-4
MEAN_MOTION_DDOT = 0

CCSDS_OMM_VERS = 2.0
CREATION_DATE  = 
ORIGINATOR     = 

OBJECT_NAME    = SL-8 R/B
OBJECT_ID      = 1990-078B
CENTER_NAME    = EARTH
REF_FRAME      = TEME
TIME_SYSTEM    = UTC
MEAN_ELEMENT_THEORY = SGP/SGP4

EPOCH          = 2025-11-29T12:42:13.838112
MEAN_MOTION    = 14.85103695
ECCENTRICITY   = .0376319
INCLINATION    = 82.9056
RA_OF_ASC_NODE = 341.1284
ARG_OF_PERICENTER = 350.2812
MEAN_ANOMALY   = 9.1255

EPHEMERIS_TYPE = 0
CLASSIFICATION_TYPE = U
NORAD_CAT_ID   = 20775
ELEMENT_SET_NO = 999
REV_AT_EPOCH   = 79441
BSTAR          = .80694E-3
MEAN_MOTION_DOT = .26053E-3
MEAN_MOTION_DDOT = 0

CCSDS_OMM_VERS = 2.0
CREATION_DATE  = 
ORIGINATOR     = 

OBJECT_NAME    = SL-8 R/B
OBJECT_ID      = 1991-006B
CENTER_NAME    = EARTH
REF_FRAME      = TEME
TIME_SYSTEM    = UTC
MEAN_ELEMENT_THEORY = SGP/SGP4

EPOCH          = 2025-11-29T19:42:17.360064
MEAN_MOTION    = 13.77487828
ECCENTRICITY   = .0021675
INCLINATION    = 82.9429
RA_OF_ASC_NODE = 244.3213
ARG_OF_PERICENTER = 317.9798
MEAN_ANOMALY   = 101.1199

EPHEMERIS_TYPE = 0
CLASSIFICATION_TYPE = U
NORAD_CAT_ID   = 21088
ELEMENT_SET_NO = 999
REV_AT_EPOCH   = 75032
BSTAR          = .64576E-4
MEAN_MOTION_DOT = .79E-6
MEAN_MOTION_DDOT = 0

CCSDS_OMM_VERS = 2.0
CREATION_DATE  = 
ORIGINATOR     = 

OBJECT_NAME    = OKEAN-3
OBJECT_ID      = 1991-039A
CENTER_NAME    = EARTH
REF_FRAME      = TEME
TIME_SYSTEM    = UTC
MEAN_ELEMENT_THEORY = SGP/SGP4

EPOCH          = 2025-11-29T15:25:12.324000
MEAN_MOTION    = 15.03985201
ECCENTRICITY   = .0013526
INCLINATION    = 82.5179
RA_OF_ASC_NODE = 73.7219
ARG_OF_PERICENTER = 313.8891
MEAN_ANOMALY   = 46.1217

EPHEMERIS_TYPE = 0
CLASSIFICATION_TYPE = U
NORAD_CAT_ID   = 21397
ELEMENT_SET_NO = 999
REV_AT_EPOCH   = 84999
BSTAR          = .26512E-3
MEAN_MOTION_DOT = .3694E-4
MEAN_MOTION_DDOT = 0

