ARIANE 40 R/B           
1 20443U 90005H   25333.74367837  .00000325  00000+0  11695-3 0  9992
2 20443  98.3262  32.2879 0010910 141.2742 218.9231 14.39782682878423
DELTA 2 R/B(1)          
1 20453U 90008B   25333.75853235  .00038459  00000+0  64356-3 0  9990
2 20453  35.6053 104.2714 0113108  59.6828 301.5038 15.43869126910622
COSMOS 2058             
1 20465U 90010A   25333.77283897  .00004172  00000+0  25295-3 0  9993
2 20465  82.4630 145.7869 0008900 327.0631  33.0043 15.10288245927154
SL-14 R/B               
1 20466U 90010B   25333.79474358  .00000459  00000+0  52855-4 0  9997
2 20466  82.5027   1.2054 0018267 269.0083  90.9039 14.83452135913670
SL-14 R/B               
1 20511U 90018B   25333.71655363  .00000523  00000+0  62749-4 0  9990
2 20511  82.5200 316.5382 0017844  63.6258 296.6786 14.82024883907774
HST                     
1 20580U 90037B   25333.79396595  .00007668  00000+0  26663-3 0  9995
2 20580  28.4702   0.5841 0002114  99.4437 260.6397 15.27771999758013
SL-16 R/B               
1 20625U 90046B   25333.80918667  .00000360  00000+0  21060-3 0  9995
2 20625  70.9969 147.6765 0012110  97.5769 262.6729 14.14995207834260
COSMOS 2084             
1 20663U 90055A   25333.67765185  .00002844  00000+0  21190-3 0  9990
2 20663  62.7909 316.4963 0033770 173.1480 187.0089 15.04889196921262
SL-6 R/B(2)             
1 20666U 90055D   25333.79393385  .00002167  00000+0  17469-3 0  9997
2 20666  62.7830 233.3998 0011574 298.6810  61.3125 15.02983254923176
SL-8 R/B                
1 20775U 90078B   25333.52932683  .00026053  00000+0  80694-3 0  9994
2 20775  82.9056 341.1284 0376319 350.2812   9.1255 14.85103695794415
SL-8 R/B                
1 21088U 91006B   25333.82103426  .00000079  00000+0  64576-4 0  9994
2 21088  82.9429 244.3213 0021675 317.9798 101.1199 13.77487828750323
OKEAN-3                 
1 21397U 91039A   25333.64250375  .00003694  00000+0  26512-3 0  9992
2 21397  82.5179  73.7219 0013526 313.8891  46.1217 15.03985201849999
